[{"OBJECT_NAME":"GEOSCAN 3 (RS92S3)","OBJECT_ID":"2025-155T","EPOCH":"2026-03-09T22:52:10.587648","MEAN_MOTION":15.31696739,"ECCENTRICITY":0.00068078,"INCLINATION":97.4455,"RA_OF_ASC_NODE":37.9971,"ARG_OF_PERICENTER":154.1387,"MEAN_ANOMALY":206.0196,"EPHEMERIS_TYPE":0,"CLASSIFICATION_TYPE":"U","NORAD_CAT_ID":64893,"ELEMENT_SET_NO":999,"REV_AT_EPOCH":6564,"BSTAR":0.00078414081,"MEAN_MOTION_DOT":0.00023985,"MEAN_MOTION_DDOT":0},{"OBJECT_NAME":"STARLINK-35458","OBJECT_ID":"2025-225R","EPOCH":"2026-03-09T12:04:10.432992","MEAN_MOTION":15.30198318,"ECCENTRICITY":0.00012583,"INCLINATION":53.1583,"RA_OF_ASC_NODE":166.2511,"ARG_OF_PERICENTER":108.0336,"MEAN_ANOMALY":252.0802,"EPHEMERIS_TYPE":0,"CLASSIFICATION_TYPE":"U","NORAD_CAT_ID":65925,"ELEMENT_SET_NO":999,"REV_AT_EPOCH":2438,"BSTAR":0.00065452582,"MEAN_MOTION_DOT":0.00019075,"MEAN_MOTION_DDOT":0}]
